{
    "links": {
        "self": "http://www.neowsapp.com/rest/v1/neo/3581657?api_key=iIulBulltgU6a56xZRHN4H3l9WmuAYTsLGpBGhQ2"
    },
    "id": "3581657",
    "neo_reference_id": "3581657",
    "name": "(2011 TQ8)",
    "designation": "2011 TQ8",
    "nasa_jpl_url": "http://ssd.jpl.nasa.gov/sbdb.cgi?sstr=3581657",
    "absolute_magnitude_h": 24.5,
    "estimated_diameter": {
        "kilometers": {
            "estimated_diameter_min": 0.0334622374,
            "estimated_diameter_max": 0.0748238376
        },
        "meters": {
            "estimated_diameter_min": 33.4622374455,
            "estimated_diameter_max": 74.8238376074
        },
        "miles": {
            "estimated_diameter_min": 0.0207924639,
            "estimated_diameter_max": 0.0464933628
        },
        "feet": {
            "estimated_diameter_min": 109.7842471007,
            "estimated_diameter_max": 245.4850393757
        }
    },
    "is_potentially_hazardous_asteroid": false,
    "close_approach_data": [
        {
            "close_approach_date": "2008-05-21",
            "close_approach_date_full": "2008-May-21 11:13",
            "epoch_date_close_approach": 1211368380000,
            "relative_velocity": {
                "kilometers_per_second": "24.8599289027",
                "kilometers_per_hour": "89495.7440498906",
                "miles_per_hour": "55609.1749625557"
            },
            "miss_distance": {
                "astronomical": "0.4146066577",
                "lunar": "161.2819898453",
                "kilometers": "62024272.879739099",
                "miles": "38540096.0394696062"
            },
            "orbiting_body": "Earth"
        },
        {
            "close_approach_date": "2011-09-29",
            "close_approach_date_full": "2011-Sep-29 01:31",
            "epoch_date_close_approach": 1317259860000,
            "relative_velocity": {
                "kilometers_per_second": "12.7172310543",
                "kilometers_per_hour": "45782.0317953144",
                "miles_per_hour": "28447.1741452608"
            },
            "miss_distance": {
                "astronomical": "0.0245667402",
                "lunar": "9.5564619378",
                "kilometers": "3675132.006763374",
                "miles": "2283621.1360836012"
            },
            "orbiting_body": "Earth"
        },
        {
            "close_approach_date": "2196-11-01",
            "close_approach_date_full": "2196-Nov-01 23:43",
            "epoch_date_close_approach": 7158325380000,
            "relative_velocity": {
                "kilometers_per_second": "26.457443938",
                "kilometers_per_hour": "95246.7981768572",
                "miles_per_hour": "59182.6563449478"
            },
            "miss_distance": {
                "astronomical": "0.4472499965",
                "lunar": "173.9802486385",
                "kilometers": "66907646.833907455",
                "miles": "41574483.908154679"
            },
            "orbiting_body": "Earth"
        }
    ],
    "orbital_data": {
        "orbit_id": "9",
        "orbit_determination_date": "2017-04-06 08:52:30",
        "first_observation_date": "2011-10-06",
        "last_observation_date": "2011-10-30",
        "data_arc_in_days": 24,
        "observations_used": 30,
        "orbit_uncertainty": "7",
        "minimum_orbit_intersection": ".0106967",
        "jupiter_tisserand_invariant": "3.457",
        "epoch_osculation": "2459000.5",
        "eccentricity": ".5907485558059001",
        "semi_major_axis": "2.144015847106818",
        "inclination": "6.163613780363857",
        "ascending_node_longitude": "13.0796575683859",
        "orbital_period": "1146.675183192093",
        "perihelion_distance": ".877441581803502",
        "perihelion_argument": "305.9274905314927",
        "aphelion_distance": "3.410590112410135",
        "perihelion_time": "2459238.711035193895",
        "mean_anomaly": "285.2133699875878",
        "mean_motion": ".3139511565933072",
        "equinox": "J2000",
        "orbit_class": {
            "orbit_class_type": "APO",
            "orbit_class_description": "Near-Earth asteroid orbits which cross the Earth’s orbit similar to that of 1862 Apollo",
            "orbit_class_range": "a (semi-major axis) > 1.0 AU; q (perihelion) < 1.017 AU"
        }
    },
    "is_sentry_object": false
}